{
  "type": "FeatureCollection",
  "features": [
    {
      "type": "Feature",
      "properties": {
        "id": "ciliwung-hulu",
        "nama_sungai": "Kali Ciliwung - Segmen Hulu (Depok - Jagakarsa)",
        "status": "default",
        "keterangan": "Kondisi air terpantau jernih, konservasi vegetasi bantaran terjaga."
      },
      "geometry": {
        "type": "LineString",
        "coordinates": [
          [106.828, -6.365],
          [106.833, -6.345],
          [106.838, -6.325],
          [106.842, -6.305],
          [106.845, -6.28]
        ]
      }
    },
    {
      "type": "Feature",
      "properties": {
        "id": "ciliwung-tengah",
        "nama_sungai": "Kali Ciliwung - Segmen Tengah (Kalibata - Tebet)",
        "status": "sampah",
        "keterangan": "Banyak laporan timbulan sampah rumah tangga & plastik di pinggir bantaran."
      },
      "geometry": {
        "type": "LineString",
        "coordinates": [
          [106.845, -6.28],
          [106.8465, -6.262],
          [106.848, -6.25],
          [106.851, -6.242],
          [106.854, -6.235]
        ]
      }
    },
    {
      "type": "Feature",
      "properties": {
        "id": "ciliwung-hilir",
        "nama_sungai": "Kali Ciliwung - Segmen Hilir (Manggarai - Pasar Baru - Ancol)",
        "status": "tercemar",
        "keterangan": "Laporan limbah cair industri terverifikasi DLH, air keruh hitam dan berbau."
      },
      "geometry": {
        "type": "LineString",
        "coordinates": [
          [106.854, -6.235],
          [106.849, -6.21],
          [106.838, -6.18],
          [106.834, -6.155],
          [106.832, -6.128]
        ]
      }
    },
    {
      "type": "Feature",
      "properties": {
        "id": "bkb-01",
        "nama_sungai": "Banjir Kanal Barat (BKB) - Segmen Manggarai to Pluit",
        "status": "tercemar",
        "keterangan": "Saluran pembuangan utama kota. Indikasi limbah minyak dan sedimen tebal."
      },
      "geometry": {
        "type": "LineString",
        "coordinates": [
          [106.849, -6.21],
          [106.822, -6.202],
          [106.802, -6.185],
          [106.792, -6.155],
          [106.795, -6.118]
        ]
      }
    },
    {
      "type": "Feature",
      "properties": {
        "id": "bkt-01",
        "nama_sungai": "Banjir Kanal Timur (BKT) - Segmen Cipinang to Marunda",
        "status": "default",
        "keterangan": "Saluran banjir timur dalam kondisi pemeliharaan rutin, air lancar."
      },
      "geometry": {
        "type": "LineString",
        "coordinates": [
          [106.878, -6.228],
          [106.905, -6.222],
          [106.945, -6.185],
          [106.962, -6.145],
          [106.968, -6.105]
        ]
      }
    },
    {
      "type": "Feature",
      "properties": {
        "id": "pesanggrahan-01",
        "nama_sungai": "Kali Pesanggrahan - Segmen Bintaro to Kebon Jeruk",
        "status": "sampah",
        "keterangan": "Penumpukan ranting pohon dan sampah rantai makanan pasca hujan deras."
      },
      "geometry": {
        "type": "LineString",
        "coordinates": [
          [106.76, -6.34],
          [106.748, -6.305],
          [106.74, -6.275],
          [106.755, -6.225],
          [106.758, -6.175]
        ]
      }
    },
    {
      "type": "Feature",
      "properties": {
        "id": "angke-01",
        "nama_sungai": "Kali Angke - Segmen Tangerang to Cengkareng",
        "status": "tercemar",
        "keterangan": "Buangan limbah tekstil usaha lokal. Keruh kebiruan di segmen Cengkareng."
      },
      "geometry": {
        "type": "LineString",
        "coordinates": [
          [106.7787, -6.5828],
          [106.765, -6.42],
          [106.755, -6.28],
          [106.751, -6.2],
          [106.7485, -6.1659]
        ]
      }
    },
    {
      "type": "Feature",
      "properties": {
        "id": "cisadane-01",
        "nama_sungai": "Kali Cisadane - Segmen Serpong to Kota Tangerang",
        "status": "default",
        "keterangan": "Debit air stabil, pengawasan rutin komunitas pecinta sungai."
      },
      "geometry": {
        "type": "LineString",
        "coordinates": [
          [106.66, -6.33],
          [106.645, -6.27],
          [106.63, -6.21],
          [106.625, -6.16],
          [106.635, -6.11]
        ]
      }
    },
    {
      "type": "Feature",
      "properties": {
        "id": "sunter-01",
        "nama_sungai": "Kali Sunter - Segmen Kelapa Gading to Danau Sunter",
        "status": "sampah",
        "keterangan": "Tumpukan plastik dan pembendungan sampah sementara di perbatasan."
      },
      "geometry": {
        "type": "LineString",
        "coordinates": [
          [106.89, -6.26],
          [106.885, -6.22],
          [106.88, -6.18],
          [106.872, -6.14],
          [106.88, -6.11]
        ]
      }
    },
    {
      "type": "Feature",
      "properties": {
        "id": "cipinang-01",
        "nama_sungai": "Kali Cipinang - Segmen Ciracas to Jatinegara",
        "status": "tercemar",
        "keterangan": "Bau tidak sedap dan endapan lumpur hitam akibat pembuangan domestik."
      },
      "geometry": {
        "type": "LineString",
        "coordinates": [
          [106.87, -6.32],
          [106.872, -6.28],
          [106.875, -6.24],
          [106.878, -6.228]
        ]
      }
    },
    {
      "type": "Feature",
      "properties": {
        "id": "krukut-01",
        "nama_sungai": "Kali Krukut - Segmen Cilandak to Tanah Abang",
        "status": "default",
        "keterangan": "Aliran air cukup lancar pasca pengerukan polder oleh DLH."
      },
      "geometry": {
        "type": "LineString",
        "coordinates": [
          [106.805, -6.31],
          [106.81, -6.27],
          [106.815, -6.23],
          [106.818, -6.195]
        ]
      }
    },
    {
      "type": "Feature",
      "properties": {
        "id": "grogol-01",
        "nama_sungai": "Kali Grogol - Segmen Kebayoran to Muara Karang",
        "status": "sampah",
        "keterangan": "Penumpukan sampah plastik di jembatan penyeberangan Grogol."
      },
      "geometry": {
        "type": "LineString",
        "coordinates": [
          [106.785, -6.25],
          [106.788, -6.21],
          [106.79, -6.17],
          [106.785, -6.12]
        ]
      }
    },
    {
      "type": "Feature",
      "properties": {
        "id": "mookervart-01",
        "nama_sungai": "Kali Mookervart - Segmen Batu Ceper to Kalideres",
        "status": "tercemar",
        "keterangan": "Pencemaran limbah cair industri perbatasan Tangerang-Jakarta."
      },
      "geometry": {
        "type": "LineString",
        "coordinates": [
          [106.64, -6.175],
          [106.68, -6.16],
          [106.72, -6.152],
          [106.75, -6.15]
        ]
      }
    },
    {
      "type": "Feature",
      "properties": {
        "id": "cakung-drain-01",
        "nama_sungai": "Cakung Drain - Segmen Jaktim to Jakut",
        "status": "tercemar",
        "keterangan": "Drainase kawasan 9.85 km (Hulu: Jaktim 6°10'58.80\"S, Hilir: Jakut 6°5'51.60\"S)"
      },
      "geometry": {
        "type": "LineString",
        "coordinates": [
          [106.9287, -6.183],
          [106.932, -6.145],
          [106.936, -6.115],
          [106.9398, -6.0977]
        ]
      }
    },
    {
      "type": "Feature",
      "properties": {
        "id": "kali-cakung-01",
        "nama_sungai": "Kali Cakung - Segmen Bekasi to BKT",
        "status": "sampah",
        "keterangan": "Panjang 39.59 km (Hulu: Bekasi 6°22'13.61\"S, Hilir: BKT Jakut 6°5'54.49\"S)"
      },
      "geometry": {
        "type": "LineString",
        "coordinates": [
          [106.9291, -6.3704],
          [106.931, -6.28],
          [106.935, -6.19],
          [106.9401, -6.0985]
        ]
      }
    },
    {
      "type": "Feature",
      "properties": {
        "id": "kali-jatikramat-01",
        "nama_sungai": "Kali Jatikramat - Segmen Bekasi to Jaktim",
        "status": "default",
        "keterangan": "Panjang 13.75 km (Hulu: Bekasi 6°19'3.06\"S, Hilir: Jaktim 6°13'44.71\"S)"
      },
      "geometry": {
        "type": "LineString",
        "coordinates": [
          [106.9254, -6.3175],
          [106.9258, -6.27],
          [106.9262, -6.2291]
        ]
      }
    },
    {
      "type": "Feature",
      "properties": {
        "id": "kali-buaran-01",
        "nama_sungai": "Kali Buaran - Segmen Bekasi to Jaktim",
        "status": "sampah",
        "keterangan": "Panjang 11.34 km (Melintasi Bekasi & Jaktim, Hilir: 6°11'1.64\"S)"
      },
      "geometry": {
        "type": "LineString",
        "coordinates": [
          [106.923, -6.255],
          [106.926, -6.215],
          [106.9288, -6.1838]
        ]
      }
    },
    {
      "type": "Feature",
      "properties": {
        "id": "kali-bekasi-01",
        "nama_sungai": "Kali Bekasi - Segmen Bantargebang to Babelan",
        "status": "tercemar",
        "keterangan": "Busa limbah terdeteksi di segmen bendung Bekasi."
      },
      "geometry": {
        "type": "LineString",
        "coordinates": [
          [106.99, -6.35],
          [106.998, -6.28],
          [107.002, -6.23],
          [107.012, -6.17],
          [107.025, -6.12]
        ]
      }
    }
  ]
}
